{
  "name": "SATGUS",
  "line1": "1 62713U 25009DJ  26016.18509894  .00004372  00000+0  36684-3 0  9999",
  "line2": "2 62713  97.7207  98.9613 0000599 322.1027  38.0154 14.98874511 54771",
  "fetched_at": "2026-01-17T00:19:18.645540+00:00"
}